NORAD_CAT_ID,OBJECT_NAME,OBJECT_TYPE,EPOCH,MEAN_MOTION,ECCENTRICITY,INCLINATION,RA_OF_ASC_NODE,ARG_OF_PERICENTER,MEAN_ANOMALY,BSTAR,MEAN_MOTION_DOT,MEAN_MOTION_DDOT,TLE_LINE0,TLE_LINE1,TLE_LINE2,SEMIMAJOR_AXIS,PERIOD,APOGEE,PERIGEE,DECAYED
52371.0,STARLINK-3798,PAYLOAD,2023-02-02 12:27:37,15.0884324,0.0001362,53.2154,227.1433,89.9121,270.2028,0.0001065,1.408e-05,0.0,0 STARLINK-3798,1 52371U 22045AS  23033.51918236  .00001408  00000-0  10650-3 0  9995,2 52371  53.2154 227.1433 0001362  89.9121 270.2028 15.08843240 45144,6917.87,95.437,540.678,538.793,0.0
52371.0,STARLINK-3798,PAYLOAD,2023-02-02 15:38:23,15.08843551,0.0001365,53.2154,226.5486,89.9212,270.1936,0.00010609,1.401e-05,0.0,0 STARLINK-3798,1 52371U 22045AS  23033.65166212  .00001401  00000-0  10609-3 0  9996,2 52371  53.2154 226.5486 0001365  89.9212 270.1936 15.08843551 45163,6917.87,95.437,540.679,538.79,0.0
52371.0,STARLINK-3798,PAYLOAD,2023-02-03 07:32:15,15.08841872,0.0001335,53.2156,223.5744,88.8383,271.2762,8.2774e-05,1.03e-05,0.0,0 STARLINK-3798,1 52371U 22045AS  23034.31406364  .00001030  00000-0  82774-4 0  9996,2 52371  53.2156 223.5744 0001335  88.8383 271.2762 15.08841872 45267,6917.875,95.437,540.663,538.816,0.0
52371.0,STARLINK-3798,PAYLOAD,2023-02-03 15:29:10,15.08844674,0.0001459,53.2156,222.0875,86.1075,274.0084,-8.4707e-05,-1.636e-05,0.0,0 STARLINK-3798,1 52371U 22045AS  23034.64526551 -.00001636  00000-0 -84707-4 0  9995,2 52371  53.2156 222.0875 0001459  86.1075 274.0084 15.08844674 45319,6917.866,95.437,540.74,538.722,0.0
52371.0,STARLINK-3798,PAYLOAD,2023-02-04 07:23:02,15.08844386,0.0001307,53.2156,219.1139,87.5859,272.5283,9.5725e-05,1.236e-05,0.0,0 STARLINK-3798,1 52371U 22045AS  23035.30766273  .00001236  00000-0  95725-4 0  9992,2 52371  53.2156 219.1139 0001307  87.5859 272.5283 15.08844386 45411,6917.867,95.437,540.636,538.828,0.0
52371.0,STARLINK-3798,PAYLOAD,2023-02-04 21:41:29,15.0885221,0.0001346,53.2157,216.4378,84.0365,276.078,0.00013216,1.817e-05,0.0,0 STARLINK-3798,1 52371U 22045AS  23035.90381515  .00001817  00000-0  13216-3 0  9999,2 52371  53.2157 216.4378 0001346  84.0365 276.0780 15.08852210 45500,6917.843,95.437,540.639,538.777,0.0
52371.0,STARLINK-3798,PAYLOAD,2023-02-05 07:13:49,15.08842755,0.000168,53.2127,214.6522,90.7322,269.3863,2.6893e-05,1.4e-06,0.0,0 STARLINK-3798,1 52371U 22045AS  23036.30126338  .00000140  00000-0  26893-4 0  9998,2 52371  53.2127 214.6522 0001680  90.7322 269.3863 15.08842755 45562,6917.872,95.437,540.899,538.575,0.0
52371.0,STARLINK-3798,PAYLOAD,2023-02-05 18:21:31,15.0883614,0.0001193,53.2159,212.5722,84.2753,275.8375,0.00010033,1.309e-05,0.0,0 STARLINK-3798,1 52371U 22045AS  23036.76494834  .00001309  00000-0  10033-3 0  9993,2 52371  53.2159 212.5722 0001193  84.2753 275.8375 15.08836140 45630,6917.892,95.438,540.582,538.932,0.0
52371.0,STARLINK-3798,PAYLOAD,2023-02-06 11:50:45,15.08843528,0.0001219,53.215,209.3013,82.9502,277.1629,8.2076e-05,1.019e-05,0.0,0 STARLINK-3798,1 52371U 22045AS  23037.49358470  .00001019  00000-0  82076-4 0  9994,2 52371  53.2150 209.3013 0001219  82.9502 277.1629 15.08843528 45741,6917.87,95.437,540.578,538.891,0.0
52371.0,STARLINK-3798,PAYLOAD,2023-02-06 18:12:18,15.08849362,0.0001205,53.215,208.1114,81.7711,278.3418,0.00017092,2.434e-05,0.0,0 STARLINK-3798,1 52371U 22045AS  23037.75854175  .00002434  00000-0  17092-3 0  9993,2 52371  53.2150 208.1114 0001205  81.7711 278.3418 15.08849362 45789,6917.852,95.437,540.55,538.883,0.0
52371.0,STARLINK-3798,PAYLOAD,2023-02-07 03:44:37,15.08844008,0.0001194,53.215,206.3271,82.1734,277.9394,0.00020959,3.05e-05,0.0,0 STARLINK-3798,1 52371U 22045AS  23038.15598443  .00003050  00000-0  20959-3 0  9992,2 52371  53.2150 206.3271 0001194  82.1734 277.9394 15.08844008 45847,6917.868,95.437,540.559,538.907,0.0
52371.0,STARLINK-3798,PAYLOAD,2023-02-07 13:16:55,15.08839952,0.0001201,53.2148,204.5427,91.5694,268.5436,0.00013,1.782e-05,0.0,0 STARLINK-3798,1 52371U 22045AS  23038.55342538  .00001782  00000-0  13000-3 0  9997,2 52371  53.2148 204.5427 0001201  91.5694 268.5436 15.08839952 45907,6917.881,95.438,540.576,538.915,0.0
52371.0,STARLINK-3798,PAYLOAD,2023-02-07 18:03:05,15.08844404,0.0001199,53.2149,203.6508,88.7836,271.3293,0.00017636,2.52e-05,0.0,0 STARLINK-3798,1 52371U 22045AS  23038.75214300  .00002520  00000-0  17636-3 0  9994,2 52371  53.2149 203.6508 0001199  88.7836 271.3293 15.08844404 45934,6917.867,95.437,540.561,538.902,0.0
52371.0,STARLINK-3798,PAYLOAD,2023-02-08 05:10:47,15.08838695,0.0001349,53.2153,201.5697,93.275,266.8396,5.075e-05,5.2e-06,0.0,0 STARLINK-3798,1 52371U 22045AS  23039.21582621  .00000520  00000-0  50750-4 0  9993,2 52371  53.2153 201.5697 0001349  93.2750 266.8396 15.08838695 46005,6917.884,95.438,540.683,538.816,0.0
52371.0,STARLINK-3798,PAYLOAD,2023-02-08 14:43:06,15.08834021,0.0001305,53.2159,199.7857,95.6563,264.4578,1.3711e-05,-7e-07,0.0,0 STARLINK-3798,1 52371U 22045AS  23039.61327347 -.00000070  00000-0  13711-4 0  9996,2 52371  53.2159 199.7857 0001305  95.6563 264.4578 15.08834021 46068,6917.899,95.438,540.666,538.861,0.0
52371.0,STARLINK-3798,PAYLOAD,2023-02-08 17:53:52,15.08839465,0.0001306,53.2158,199.191,93.4892,266.6249,5.8484e-05,6.43e-06,0.0,0 STARLINK-3798,1 52371U 22045AS  23039.74574901  .00000643  00000-0  58484-4 0  9991,2 52371  53.2158 199.1910 0001306  93.4892 266.6249 15.08839465 46081,6917.882,95.438,540.65,538.844,0.0
52371.0,STARLINK-3798,PAYLOAD,2023-02-09 05:01:33,15.08855576,0.0001331,53.216,197.1099,92.0371,268.0773,0.00020098,2.913e-05,0.0,0 STARLINK-3798,1 52371U 22045AS  23040.20941415  .00002913  00000-0  20098-3 0  9993,2 52371  53.2160 197.1099 0001331  92.0371 268.0773 15.08855576 46152,6917.833,95.437,540.619,538.777,0.0
52371.0,STARLINK-3798,PAYLOAD,2023-02-09 09:47:43,15.08855592,0.0001388,53.215,196.2171,87.854,272.2611,0.00036107,5.466e-05,0.0,0 STARLINK-3798,1 52371U 22045AS  23040.40813802  .00005466  00000-0  36107-3 0  9997,2 52371  53.2150 196.2171 0001388  87.8540 272.2611 15.08855592 46183,6917.833,95.437,540.658,538.738,0.0
52371.0,STARLINK-3798,PAYLOAD,2023-02-09 16:09:15,15.0887388,0.0001387,53.215,195.027,96.7238,263.3912,0.00094035,0.00014723,0.0,0 STARLINK-3798,1 52371U 22045AS  23040.67309282  .00014723  00000-0  94035-3 0  9998,2 52371  53.2150 195.0270 0001387  96.7238 263.3912 15.08873880 46222,6917.777,95.435,540.601,538.682,0.0
52371.0,STARLINK-3798,PAYLOAD,2023-02-10 03:16:57,15.08854865,0.0001543,53.216,192.948,93.2651,266.8518,3.6535e-05,2.94e-06,0.0,0 STARLINK-3798,1 52371U 22045AS  23041.13677228  .00000294  00000-0  36535-4 0  9998,2 52371  53.2160 192.9480 0001543  93.2651 266.8518 15.08854865 46296,6917.835,95.437,540.767,538.633,0.0
52371.0,STARLINK-3798,PAYLOAD,2023-02-10 12:49:16,15.08831273,0.000143,53.215,191.1614,103.5139,256.6012,-0.00034001,-5.694e-05,0.0,0 STARLINK-3798,1 52371U 22045AS  23041.53421903 -.00005694  00000-0 -34001-3 0  9995,2 52371  53.2150 191.1614 0001430 103.5139 256.6012 15.08831273 46357,6917.907,95.438,540.761,538.783,0.0
52371.0,STARLINK-3798,PAYLOAD,2023-02-10 16:00:02,15.08832995,0.0001392,53.215,190.5673,106.7337,253.3808,0.00028261,4.212e-05,0.0,0 STARLINK-3798,1 52371U 22045AS  23041.66669905  .00004212  00000-0  28261-3 0  9999,2 52371  53.2150 190.5673 0001392 106.7337 253.3808 15.08832995 46378,6917.902,95.438,540.73,538.804,0.0
52371.0,STARLINK-3798,PAYLOAD,2023-02-11 12:40:04,15.08826227,0.0001077,53.2152,186.7019,122.4572,237.6524,0.0015496,0.00024451,0.0,0 STARLINK-3798,1 52371U 22045AS  23042.52783536  .00024451  00000-0  15496-2 0  9994,2 52371  53.2152 186.7019 0001077 122.4572 237.6524 15.08826227 46503,6917.922,95.438,540.533,539.042,0.0
52371.0,STARLINK-3798,PAYLOAD,2023-02-11 14:15:28,15.08830324,0.0001125,53.2152,186.4045,116.066,244.0448,0.0016893,0.00026692,0.0,0 STARLINK-3798,1 52371U 22045AS  23042.59407616  .00026692  00000-0  16893-2 0  9994,2 52371  53.2152 186.4045 0001125 116.0660 244.0448 15.08830324 46511,6917.91,95.438,540.553,538.997,0.0
52371.0,STARLINK-3798,PAYLOAD,2023-02-12 02:58:33,15.08842963,0.0001385,53.2153,184.0227,125.2556,234.8566,0.00096533,0.0001511,0.0,0 STARLINK-3798,1 52371U 22045AS  23043.12399653  .00015110  00000-0  96533-3 0  9998,2 52371  53.2153 184.0227 0001385 125.2556 234.8566 15.08842963 46590,6917.871,95.437,540.694,538.778,0.0
52371.0,STARLINK-3798,PAYLOAD,2023-02-12 12:30:52,15.08847816,0.0001124,53.2148,182.241,110.7495,249.3618,0.00089906,0.00014053,0.0,0 STARLINK-3798,1 52371U 22045AS  23043.52143865  .00014053  00000-0  89906-3 0  9995,2 52371  53.2148 182.2410 0001124 110.7495 249.3618 15.08847816 46658,6917.856,95.437,540.499,538.944,0.0
52371.0,STARLINK-3798,PAYLOAD,2023-02-12 15:41:38,15.08853369,0.0001023,53.2152,181.6466,92.7892,267.3218,0.00094343,0.00014764,0.0,0 STARLINK-3798,1 52371U 22045AS  23043.65391773  .00014764  00000-0  94343-3 0  9992,2 52371  53.2152 181.6466 0001023  92.7892 267.3218 15.08853369 46673,6917.84,95.437,540.412,538.997,0.0
52371.0,STARLINK-3798,PAYLOAD,2023-02-13 12:21:39,15.08854691,0.0001148,53.2157,177.7799,85.8402,274.2722,0.00019122,2.758e-05,0.0,0 STARLINK-3798,1 52371U 22045AS  23044.51503632  .00002758  00000-0  19122-3 0  9999,2 52371  53.2157 177.7799 0001148  85.8402 274.2722 15.08854691 46802,6917.835,95.437,540.495,538.906,0.0
52371.0,STARLINK-3798,PAYLOAD,2023-02-13 15:32:25,15.08856559,0.0001152,53.2147,177.1861,102.0793,258.0329,0.00069057,0.00010725,0.0,0 STARLINK-3798,1 52371U 22045AS  23044.64751538  .00010725  00000-0  69057-3 0  9998,2 52371  53.2147 177.1861 0001152 102.0793 258.0329 15.08856559 46825,6917.83,95.437,540.492,538.898,0.0
52371.0,STARLINK-3798,PAYLOAD,2023-02-15 05:41:40,15.08834123,0.0001505,53.215,170.05,113.4637,246.6513,-0.0001676,-2.954e-05,0.0,0 STARLINK-3798,1 52371U 22045AS  23046.23727220 -.00002954  00000-0 -16760-3 0  9996,2 52371  53.2150 170.0500 0001505 113.4637 246.6513 15.08834123 47064,6917.898,95.438,540.804,538.722,0.0
